sat1_satellite_id,sat1_epoch,sat1_mean_motion,sat1_eccentricity,sat1_inclination,sat1_raan,sat1_argument_of_perigee,sat1_mean_anomaly,sat1_perigee,sat1_apogee,sat1_period,sat1_semi_major_axis,sat1_orbital_energy,sat1_orbital_angular_momentum,sat1_rev_number,sat1_bstar,sat1_mean_motion_derivative,sat1_cluster,sat2_satellite_id,sat2_epoch,sat2_mean_motion,sat2_eccentricity,sat2_inclination,sat2_raan,sat2_argument_of_perigee,sat2_mean_anomaly,sat2_perigee,sat2_apogee,sat2_period,sat2_semi_major_axis,sat2_orbital_energy,sat2_orbital_angular_momentum,sat2_rev_number,sat2_bstar,sat2_mean_motion_derivative,sat2_cluster,mean_motion_difference,eccentricity_difference,inclination_difference,raan_difference,argument_of_perigee_difference,mean_anomaly_difference,perigee_difference,apogee_difference,period_difference,semi_major_axis_difference,orbital_energy_difference,orbital_angular_momentum_difference,bstar_difference,mean_motion_derivative_difference,synodic_period,close_approach
5871,25036.20505695,14.98321937,0.0003262,1.2217269857375266,1.8604127722123316,4.719064864773568,1.5654922711980859,576.9506641640237,581.4849862731962,1.601791938523821,6950.21782521861,-28675392.039778445,52634205617.20524,10895,-3.6933e-05,-5.34e-06,0,10232,25035.69221337,15.40695379,0.0002032,0.7505613915276415,4.680421529805162,4.549844721817205,1.7344349068033809,449.80651911993664,452.5790582692616,1.5577381698631012,6822.192788694599,-29213513.465973943,52147185421.0435,1404,-3.7022000000000003e-06,-4.58e-06,0,-0.42373441999999883,0.000123,0.47116559420988513,-2.8200087575928308,0.16922014295636245,-0.168942635605295,127.14414504408705,128.9059280039346,0.04405376866071986,128.02503652401174,538121.4261954986,487020196.16173553,-3.32308e-05,-7.599999999999995e-07,-56.63925059474804,False
8823,25036.07078229,13.75467262,0.0059521,1.701722200633251,1.0186439646339704,3.549463882476104,2.7310109283751354,943.3484865978689,1030.9413151267136,1.7448615945320818,7358.144900862291,-27085661.343342703,54155848261.244255,3931,0.008308,8.072e-05,0,9758,25036.04136930,14.92144117,0.0018007,0.8726262287536208,4.257816231373515,1.4721869693864689,4.816225598902841,585.8385019793832,610.9380569290088,1.6084237257358682,6969.388279454196,-28596515.635029033,52706662193.12525,2273,0.00080937,8.113e-05,0,-1.1667685500000005,0.0041514,0.8290959718796302,-3.2391722667395446,2.0772769130896354,-2.085214670527706,357.50998461848576,420.0032581977048,0.13643786879621356,388.75662140809527,1510854.29168633,1449186068.1190033,0.007498629999999999,-4.1000000000000454e-07,-20.569632254828985,False
6743,25035.47901485,15.025173,0.0002509,0.7506050247589414,1.9488416240938762,4.6490806524271,1.6350733124873438,564.5335305809913,568.0146547206832,1.5973193786187996,6937.274092650838,-28728895.274749678,52585172284.08314,8956,0.00029345,3.76e-05,0,9258,25035.39219406,15.30187237,0.0001298,0.9278222663479415,1.3418021476162325,1.51193684310064,4.773253847389488,481.500607656586,483.2797477467175,1.5684355103531664,6853.390177701652,-29080530.326209616,52266282693.862816,3471,0.00015976000000000003,4.373e-05,0,-0.27669936999999933,0.00012110000000000002,-0.1772172415890001,0.6070394764776437,3.1371438093264596,-3.138180534902144,83.03292292440528,84.73490697396574,0.02888386826563316,83.88391494918596,351635.0514599383,318889590.22032166,0.00013368999999999998,-6.130000000000004e-06,-86.73673525169232,False
4849,25035.91668981,15.01225279,0.0001536,1.7044187343275825,4.876760598679012,1.285984772808202,0.7544499851010847,569.1876956637807,571.3200488533384,1.59869410245922,6941.25387225856,-28712423.51421895,52600254703.29522,13383,0.00039835,5.057e-05,0,7008,25035.80022884,15.02509922,4.75e-05,0.7505107769793337,3.699132847151626,5.43567087570366,0.8489141855360259,565.9672811263081,566.6263243225658,1.5973272221759058,6937.296802724437,-28728801.22726336,52585259952.0501,8745,-0.00022506999999999998,-3.24e-05,0,-0.012846429999999742,0.00010609999999999999,0.9539079573482488,1.1776277515273863,-4.149686102895458,-0.09446420043494119,3.2204145374726068,4.69372453077267,0.0013668802833142202,3.9570695341226383,16377.713044412434,14994751.245117188,0.00062342,8.297e-05,-1868.2233118456913,False
2555,25035.88292914,15.06380946,3.6e-05,0.9259582547068116,4.493161663700186,1.6370996397489093,4.647883356560231,554.1576416691205,554.6562709699747,1.5932224888882764,6925.406956319548,-28778124.109823648,52540177662.96757,21576,2.1986000000000003e-05,4.6e-07,0,4849,25035.91668981,15.01225279,0.0001536,1.7044187343275825,4.876760598679012,1.285984772808202,0.7544499851010847,569.1876956637807,571.3200488533384,1.59869410245922,6941.25387225856,-28712423.51421895,52600254703.29522,13383,0.00039835,5.057e-05,0,0.05155667000000008,-0.00011759999999999999,-0.7784604796207709,-0.383598934978826,0.35111486694070737,3.8934333714591465,-15.030053994660193,-16.663777883363764,-0.005471613570943612,-15.846915939011524,-65700.5956046991,-60077040.32765198,-0.000376364,-5.011e-05,465.50717879950486,False
7635,25035.65533316,15.02534104,4.64e-05,0.7504619077602778,2.591318265704013,4.7850330745111975,1.4995292974482122,565.9004821717554,566.5442564076257,1.5973015145618261,6937.2223692896905,-28729109.47503713,52584977848.339836,7108,0.0001008,1.158e-05,0,8271,25035.56057942,13.7035154,0.0011778,0.6979519318847763,2.96466164599812,4.597050642095896,1.6850961941787532,996.758232203264,1014.1341888968354,1.7513754171429592,7376.44621055005,-27018460.54472056,54224078043.61533,4878,9.765e-05,9e-08,0,1.3218256400000001,-0.0011313999999999999,0.052509975875501436,-0.3733433802941071,0.18798243241530166,-0.18556689673054105,-430.85775003150866,-447.5899324892098,-0.15407390258113307,-439.2238412603592,-1710648.9303165711,-1639100195.2754974,3.1499999999999953e-06,1.1489999999999998e-05,18.15670635652063,False
2505,25035.56039252,15.06400195,0.0001359,0.9259146214755118,4.169659650855281,1.4266775091407167,4.858502709373899,553.4068055036214,555.2891150792293,1.5932021304604234,6925.347960291425,-28778369.266461127,52539953422.21693,21625,0.00020935000000000002,2.838e-05,0,4601,25035.52539666,15.08834278,0.0001431,0.9288712092283902,2.9094045218799796,1.810381163874662,4.47481301727397,545.9079276977855,547.887830070722,1.5906319434770935,6917.897878884253,-28809361.51259636,52511685312.737816,14114,1.6338000000000002e-05,-2.8e-07,0,-0.02434082999999987,-7.200000000000012e-06,-0.0029565877528783258,1.2602551289753015,-0.3837036547339454,0.38368969209992887,7.498877805835946,7.40128500850733,0.002570186983329892,7.450081407171638,30992.246135234833,28268109.479110718,0.00019301200000000003,2.866e-05,-985.9976015608755,False
8044,25035.44759442,15.25921078,0.0001415,0.7504636530895298,3.005394140081164,4.892510449849008,1.391880879843706,494.18644371223763,496.1295664276722,1.5728205308924876,6866.158005069955,-29026454.205224693,52314945851.94104,6158,-4.2566e-05,-1.371e-05,0,8061,25035.82243271,15.76712726,0.0001503,0.9278152850309336,1.3334961257059916,1.6558130599887924,4.629454424988423,345.8891327868032,347.90853317599885,1.5221542646444,6717.898832981401,-29667047.07155446,51747051918.957756,6388,2.4178e-05,3.301e-05,0,-0.5079164800000004,-8.799999999999997e-06,-0.1773516319414038,1.6718980143751723,3.236697389860216,-3.237573545144717,148.29731092543443,148.22103325167336,0.05066626624808768,148.2591720885539,640592.8663297668,567893932.983284,-6.6744e-05,-4.672e-05,-47.25186314096377,False
4849,25035.91668981,15.01225279,0.0001536,1.7044187343275825,4.876760598679012,1.285984772808202,0.7544499851010847,569.1876956637807,571.3200488533384,1.59869410245922,6941.25387225856,-28712423.51421895,52600254703.29522,13383,0.00039835,5.057e-05,0,8823,25036.07078229,13.75467262,0.0059521,1.701722200633251,1.0186439646339704,3.549463882476104,2.7310109283751354,943.3484865978689,1030.9413151267136,1.7448615945320818,7358.144900862291,-27085661.343342703,54155848261.244255,3931,0.008308,8.072e-05,0,1.2575801700000007,-0.0057985,0.0026965336943314266,3.8581166340450417,-2.263479109667902,-1.9765609432740505,-374.16079093408825,-459.6212662733751,-0.14616749207286173,-416.8910286037317,-1626762.170876246,-1555593557.9490356,-0.007909649999999999,-3.015e-05,19.08427038890096,False
5871,25036.20505695,14.98321937,0.0003262,1.2217269857375266,1.8604127722123316,4.719064864773568,1.5654922711980859,576.9506641640237,581.4849862731962,1.601791938523821,6950.21782521861,-28675392.039778445,52634205617.20524,10895,-3.6933e-05,-5.34e-06,0,8044,25035.44759442,15.25921078,0.0001415,0.7504636530895298,3.005394140081164,4.892510449849008,1.391880879843706,494.18644371223763,496.1295664276722,1.5728205308924876,6866.158005069955,-29026454.205224693,52314945851.94104,6158,-4.2566e-05,-1.371e-05,0,-0.2759914099999996,0.00018470000000000002,0.4712633326479968,-1.1449813678688323,-0.1734455850754406,0.17361139135437997,82.76422045178606,85.35541984552401,0.028971407631333435,84.05982014865549,351062.1654462479,319259765.2641983,5.632999999999998e-06,8.37e-06,-86.9592281875739,False
4892,25035.96926088,15.08853158,0.0001352,0.9287856880950425,4.1781978015560375,1.6339440844613033,4.65124311537032,545.9048785232608,547.7754625053667,1.5906120401943031,6917.840170514314,-28809601.839237463,52511466346.5531,13391,0.00017747,2.539e-05,0,9193,25035.52400498,15.30199765,0.0001042,0.9277803784458937,2.22660728389027,1.359231005526648,4.925903834427416,481.63865172830356,483.0668904457989,1.5684226693107592,6853.352771087051,-29080689.05205179,52266140212.43774,3763,0.00012677,3.397e-05,0,-0.21346607000000084,3.100000000000001e-05,0.0010053096491488,1.9515905176657675,0.27471307893465524,-0.27466071905709555,64.26622679495722,64.70857205956781,0.02218937088354389,64.48739942726297,271087.21281432733,245326134.11536407,5.0699999999999986e-05,-8.580000000000003e-06,-112.43004567423435,False
